GLOBALSTAR M075 [+]     
1 37192U 10054E   24076.57855524 -.00000094  00000+0  51808-4 0  9991
2 37192  51.9935 134.8566 0000429 102.0470  45.3843 12.62271710618212
GLOBALSTAR M073 [+]     
1 37193U 10054F   24076.34074868 -.00000107  00000+0 -16271-4 0  9992
2 37193  52.0068  49.0449 0000508  80.2839  67.2294 12.62262468620017
GLOBALSTAR M083 [+]     
1 37739U 11033A   24076.19562573 -.00000078  00000+0  14232-3 0  9994
2 37739  51.9889 358.8472 0000407  56.1458  91.5048 12.62266558589011
GLOBALSTAR M088 [+]     
1 37740U 11033B   24076.01561823 -.00000086  00000+0  10043-3 0  9999
2 37740  51.9713 265.2729 0000717  77.5090  92.3303 12.62266064584535
GLOBALSTAR M091 [+]     
1 37741U 11033C   24076.56260142 -.00000085  00000+0  10259-3 0  9998
2 37741  51.9978 226.3407 0000601  82.3715 354.4794 12.62272373585391
GLOBALSTAR M085 [+]     
1 37742U 11033D   24076.47113116 -.00000082  00000+0  11904-3 0  9992
2 37742  51.9858 178.0649 0000469  97.6234 342.5552 12.62268595585893
GLOBALSTAR M081 [+]     
1 37743U 11033E   24076.58207432 -.00000089  00000+0  82294-4 0  9998
2 37743  51.9951 180.2307 0000605  82.4703  22.6852 12.62270500586056
GLOBALSTAR M089 [+]     
1 37744U 11033F   24076.46293188 -.00000091  00000+0  69692-4 0  9999
2 37744  51.9920 134.9096 0000910 104.9652 357.5536 12.62272348586888
